OBJECT_NAME,OBJECT_ID,EPOCH,MEAN_MOTION,ECCENTRICITY,INCLINATION,RA_OF_ASC_NODE,ARG_OF_PERICENTER,MEAN_ANOMALY,EPHEMERIS_TYPE,CLASSIFICATION_TYPE,NORAD_CAT_ID,ELEMENT_SET_NO,REV_AT_EPOCH,BSTAR,MEAN_MOTION_DOT,MEAN_MOTION_DDOT
STARLINK-2242,2021-041AL,2023-05-28T21:45:32.514048,15.06420131,.0000576,53.0545,21.6455,85.8430,274.2625,0,U,48587,999,11195,.1812E-2,.26826E-3,0
STARLINK-2244,2021-041AM,2023-05-28T21:15:01.230624,15.06419127,.000106,53.0551,11.7380,74.5268,285.5838,0,U,48588,999,11209,.13376E-2,.19708E-3,0
STARLINK-2245,2021-041AN,2023-05-28T21:09:42.859584,15.06413965,.0001131,53.0545,11.7572,77.9276,282.1840,0,U,48589,999,11209,.13951E-2,.20567E-3,0
STARLINK-2248,2021-041AQ,2023-05-28T20:47:07.435392,15.06407591,.0000732,53.0551,11.8249,82.1389,277.9683,0,U,48591,999,11299,.10069E-2,.14751E-3,0
STARLINK-2249,2021-041AR,2023-05-29T01:48:20.459520,15.06417631,.000084,53.0561,20.9152,83.7046,276.4038,0,U,48592,999,11228,.18623E-2,.2758E-3,0
STARLINK-2250,2021-041AS,2023-05-28T21:08:23.180640,15.06407629,.0001017,53.0564,21.7626,97.5793,262.5312,0,U,48593,999,11195,.9761E-3,.1429E-3,0
STARLINK-2251,2021-041AT,2023-05-28T20:14:00.105792,15.06420194,.0001356,53.0549,352.0156,74.5891,285.5247,0,U,48594,999,11237,.13369E-2,.19698E-3,0
STARLINK-2252,2021-041AU,2023-05-28T20:41:50.506368,15.06418264,.0001473,53.0551,21.8412,100.3402,259.7753,0,U,48595,999,11322,.14165E-2,.20891E-3,0
STARLINK-2253,2021-041AV,2023-05-28T21:13:41.729664,15.06411768,.0000981,53.0551,21.7444,88.4346,271.6756,0,U,48596,999,11241,.11421E-2,.16776E-3,0
STARLINK-2255,2021-041AW,2023-05-28T21:24:18.659232,15.06412799,.0000849,53.0545,21.7145,89.7206,270.3880,0,U,48597,999,11322,.1333E-2,.19636E-3,0
STARLINK-2256,2021-041AX,2023-05-28T21:29:37.189248,15.06414947,.0000954,53.0544,21.6940,85.3928,274.7170,0,U,48598,999,11241,.13649E-2,.20115E-3,0
STARLINK-2274,2021-041AY,2023-05-28T20:31:53.389056,15.06417365,.0001338,53.0549,356.8731,103.9903,256.1235,0,U,48599,999,11357,.89613E-3,.13098E-3,0
STARLINK-2275,2021-041AZ,2023-05-28T21:25:38.582688,15.06420422,.0001048,53.0544,11.7052,78.0224,282.0883,0,U,48600,999,11336,.14019E-2,.20673E-3,0
STARLINK-2713,2021-041BB,2023-05-28T21:19:39.952704,15.06406312,.000079,53.0544,356.7243,96.1236,263.9843,0,U,48602,999,11356,.79593E-3,.11596E-3,0
STARLINK-2714,2021-041BC,2023-05-28T22:25:18.856992,15.06412190,.0000827,53.0546,351.5235,79.4298,280.6784,0,U,48603,999,11365,.86449E-3,.12623E-3,0
STARLINK-2757,2021-041BD,2023-05-28T22:28:00.381792,15.06414836,.000131,53.0562,21.5118,76.7803,283.3332,0,U,48604,999,11323,.12727E-2,.18734E-3,0
CAPELLA-6-WHITNEY,2021-041BE,2023-05-28T21:03:22.415328,15.10776296,.0011983,53.0304,51.9719,20.9953,339.1527,0,U,48605,999,11149,.17307E-2,.28923E-3,0
TYVAK-0130,2021-041BF,2023-05-29T04:00:06.633216,15.01843822,.0013869,53.0316,58.3282,6.0587,354.0565,0,U,48606,999,11142,.41284E-3,.5186E-4,0
SBIRS GEO-5 (USA 315),2021-042A,2023-05-28T18:02:29.834880,1.00273345,.0001638,6.7724,325.5660,97.8802,114.1186,0,U,48618,999,757,0,.12E-5,0
HAIYANG-2D,2021-043A,2023-05-29T05:13:19.909056,13.83371215,.0008688,65.9965,200.5876,259.3834,100.6255,0,U,48621,999,10236,.50883E-4,-.25E-6,0
SPACEBEE-75,2021-006FD,2023-05-29T02:10:36.150816,16.02569854,.001059,97.1311,194.0116,227.5391,132.4995,0,U,48637,999,13044,.32675E-2,.1862259E-1,.23652E-2
STARLINK-2758,2021-044A,2023-05-28T21:18:18.074016,15.06416828,.0000836,53.0550,356.7278,78.9995,281.1088,0,U,48638,999,11067,.11603E-2,.17051E-3,0
STARLINK-2739,2021-044B,2023-05-28T20:57:04.514688,15.06409949,.0001136,53.0552,356.7950,68.7828,291.3283,0,U,48639,999,11157,.66324E-3,.9614E-4,0
STARLINK-2736,2021-044C,2023-05-28T19:12:20.234016,15.06429394,.0001314,53.0553,357.4002,87.8216,272.2924,0,U,48640,999,11065,.91382E-3,.13367E-3,0
STARLINK-2754,2021-044D,2023-05-28T21:05:44.160576,15.06423495,.0001333,53.0547,1.7680,73.9921,286.1215,0,U,48641,999,11060,.13538E-2,.19954E-3,0
STARLINK-2646,2021-044E,2023-05-28T21:25:36.163488,15.06408722,.0000858,53.0551,1.7108,96.7680,263.3406,0,U,48642,999,11144,.79991E-3,.11656E-3,0
STARLINK-2704,2021-044F,2023-05-28T19:23:31.728768,15.06417417,.0001199,53.0551,2.0802,69.9736,290.1381,0,U,48643,999,11059,.14235E-2,.20995E-3,0
STARLINK-2695,2021-044G,2023-05-28T20:55:07.110912,15.06421796,.0001121,53.0557,1.7998,73.4966,286.6146,0,U,48644,999,11060,.13764E-2,.20291E-3,0
STARLINK-2733,2021-044H,2023-05-28T20:49:48.758016,15.06418337,.000115,53.0548,1.8154,71.6527,288.4587,0,U,48645,999,11060,.10153E-2,.14881E-3,0
STARLINK-2732,2021-044J,2023-05-28T20:44:30.375744,15.06416293,.000138,53.0543,1.8330,80.2373,279.8771,0,U,48646,999,11060,.10864E-2,.15944E-3,0
