STARLINK-2242           
1 48587U 21041AL  23148.90662632  .00026826  00000+0  18120-2 0  9999
2 48587  53.0545  21.6455 0000576  85.8430 274.2625 15.06420131111953
STARLINK-2244           
1 48588U 21041AM  23148.88543091  .00019708  00000+0  13376-2 0  9993
2 48588  53.0551  11.7380 0001060  74.5268 285.5838 15.06419127112091
STARLINK-2245           
1 48589U 21041AN  23148.88174606  .00020567  00000+0  13951-2 0  9990
2 48589  53.0545  11.7572 0001131  77.9276 282.1840 15.06413965112093
STARLINK-2248           
1 48591U 21041AQ  23148.86605828  .00014751  00000+0  10069-2 0  9991
2 48591  53.0551  11.8249 0000732  82.1389 277.9683 15.06407591112998
STARLINK-2249           
1 48592U 21041AR  23149.07523680  .00027580  00000+0  18623-2 0  9999
2 48592  53.0561  20.9152 0000840  83.7046 276.4038 15.06417631112287
STARLINK-2250           
1 48593U 21041AS  23148.88082385  .00014290  00000+0  97610-3 0  9998
2 48593  53.0564  21.7626 0001017  97.5793 262.5312 15.06407629111955
STARLINK-2251           
1 48594U 21041AT  23148.84305678  .00019698  00000+0  13369-2 0  9993
2 48594  53.0549 352.0156 0001356  74.5891 285.5247 15.06420194112378
STARLINK-2252           
1 48595U 21041AU  23148.86239012  .00020891  00000+0  14165-2 0  9996
2 48595  53.0551  21.8412 0001473 100.3402 259.7753 15.06418264113229
STARLINK-2253           
1 48596U 21041AV  23148.88451076  .00016776  00000+0  11421-2 0  9994
2 48596  53.0551  21.7444 0000981  88.4346 271.6756 15.06411768112418
STARLINK-2255           
1 48597U 21041AW  23148.89188263  .00019636  00000+0  13330-2 0  9990
2 48597  53.0545  21.7145 0000849  89.7206 270.3880 15.06412799113221
STARLINK-2256           
1 48598U 21041AX  23148.89556932  .00020115  00000+0  13649-2 0  9990
2 48598  53.0544  21.6940 0000954  85.3928 274.7170 15.06414947112410
STARLINK-2274           
1 48599U 21041AY  23148.85547904  .00013098  00000+0  89613-3 0  9993
2 48599  53.0549 356.8731 0001338 103.9903 256.1235 15.06417365113575
STARLINK-2275           
1 48600U 21041AZ  23148.89280767  .00020673  00000+0  14019-2 0  9995
2 48600  53.0544  11.7052 0001048  78.0224 282.0883 15.06420422113364
STARLINK-2713           
1 48602U 21041BB  23148.88865686  .00011596  00000+0  79593-3 0  9998
2 48602  53.0544 356.7243 0000790  96.1236 263.9843 15.06406312113565
STARLINK-2714           
1 48603U 21041BC  23148.93424603  .00012623  00000+0  86449-3 0  9995
2 48603  53.0546 351.5235 0000827  79.4298 280.6784 15.06412190113656
STARLINK-2757           
1 48604U 21041BD  23148.93611553  .00018734  00000+0  12727-2 0  9994
2 48604  53.0562  21.5118 0001310  76.7803 283.3332 15.06414836113231
CAPELLA-6-WHITNEY       
1 48605U 21041BE  23148.87734277  .00028923  00000+0  17307-2 0  9997
2 48605  53.0304  51.9719 0011983  20.9953 339.1527 15.10776296111492
TYVAK-0130              
1 48606U 21041BF  23149.16674344  .00005186  00000+0  41284-3 0  9997
2 48606  53.0316  58.3282 0013869   6.0587 354.0565 15.01843822111426
SBIRS GEO-5 (USA 315)   
1 48618U 21042A   23148.75173420  .00000120  00000+0  00000+0 0  9994
2 48618   6.7724 325.5660 0001638  97.8802 114.1186  1.00273345  7570
HAIYANG-2D              
1 48621U 21043A   23149.21759154 -.00000025  00000+0  50883-4 0  9999
2 48621  65.9965 200.5876 0008688 259.3834 100.6255 13.83371215102360
SPACEBEE-75             
1 48637U 21006FD  23149.09069619  .01862259  23652-2  32675-2 0  9994
2 48637  97.1311 194.0116 0010590 227.5391 132.4995 16.02569854130449
STARLINK-2758           
1 48638U 21044A   23148.88770919  .00017051  00000+0  11603-2 0  9993
2 48638  53.0550 356.7278 0000836  78.9995 281.1088 15.06416828110675
STARLINK-2739           
1 48639U 21044B   23148.87296892  .00009614  00000+0  66324-3 0  9993
2 48639  53.0552 356.7950 0001136  68.7828 291.3283 15.06409949111577
STARLINK-2736           
1 48640U 21044C   23148.80023419  .00013367  00000+0  91382-3 0  9993
2 48640  53.0553 357.4002 0001314  87.8216 272.2924 15.06429394110651
STARLINK-2754           
1 48641U 21044D   23148.87898334  .00019954  00000+0  13538-2 0  9991
2 48641  53.0547   1.7680 0001333  73.9921 286.1215 15.06423495110604
STARLINK-2646           
1 48642U 21044E   23148.89277967  .00011656  00000+0  79991-3 0  9994
2 48642  53.0551   1.7108 0000858  96.7680 263.3406 15.06408722111449
STARLINK-2704           
1 48643U 21044F   23148.80800612  .00020995  00000+0  14235-2 0  9990
2 48643  53.0551   2.0802 0001199  69.9736 290.1381 15.06417417110594
STARLINK-2695           
1 48644U 21044G   23148.87161008  .00020291  00000+0  13764-2 0  9992
2 48644  53.0557   1.7998 0001121  73.4966 286.6146 15.06421796110609
STARLINK-2733           
1 48645U 21044H   23148.86792544  .00014881  00000+0  10153-2 0  9994
2 48645  53.0548   1.8154 0001150  71.6527 288.4587 15.06418337110606
STARLINK-2732           
1 48646U 21044J   23148.86424046  .00015944  00000+0  10864-2 0  9994
2 48646  53.0543   1.8330 0001380  80.2373 279.8771 15.06416293110606
